STARLINK-30327          
1 57707U 23129K   23258.58334491 -.01632911  00000+0 -20717-1 0  9992
2 57707  43.0005   8.6172 0001167 269.2021 200.9086 15.61855483  4174
STARLINK-30315          
1 57708U 23129L   23258.58334491 -.01634752  00000+0 -20704-1 0  9994
2 57708  43.0003   8.6147 0004347 190.4403 280.1324 15.61865291  4327
STARLINK-30287          
1 57709U 23129M   23258.58334491 -.01636480  00000+0 -20748-1 0  9993
2 57709  43.0005   8.6176 0004104 190.3790 279.2935 15.61845137  4336
STARLINK-30335          
1 57710U 23129N   23258.58334491 -.01637496  00000+0 -20728-1 0  9991
2 57710  43.0003   8.6127 0004370 185.8272 285.7073 15.61883783  4324
STARLINK-30318          
1 57711U 23129P   23258.58334491 -.01635126  00000+0 -20738-1 0  9991
2 57711  43.0004   8.6149 0000475 218.6953 252.3433 15.61875451  4078
STARLINK-30348          
1 57712U 23129Q   23258.83334491 -.01592573  00000+0 -20945-1 0  9998
2 57712  43.0004   7.1223 0001183 287.8389 151.9715 15.60852394  4330
STARLINK-30349          
1 57713U 23129R   23258.58334491 -.01636127  00000+0 -20676-1 0  9996
2 57713  43.0004   8.6073 0003558 182.9249 290.8839 15.61934715  4012
STARLINK-30341          
1 57714U 23129S   23258.83334491 -.01969614  00000+0 -25803-1 0  9992
2 57714  43.0005   7.1207 0001662 277.8654 162.6596 15.61118633  4339
STARLINK-30300          
1 57715U 23129T   23258.58334491 -.01632121  00000+0 -20677-1 0  9999
2 57715  43.0004   8.6121 0000958 277.0000 194.9755 15.61892774  4334
STARLINK-30281          
1 57716U 23129U   23258.58334491 -.01654894  00000+0 -21040-1 0  9996
2 57716  43.0004   8.6299 0006445 221.0579 243.7821 15.61775865  4011
STARLINK-30325          
1 57717U 23129V   23258.58334491 -.01632094  00000+0 -20651-1 0  9992
2 57717  43.0004   8.6089 0001225 268.2479 205.1193 15.61921632  4336
STARLINK-30338          
1 57718U 23129W   23258.83334491 -.01699231  00000+0 -21868-1 0  9998
2 57718  43.0004   7.1175 0003548 207.8363 234.0079 15.61079241  4332
STARLINK-30334          
1 57719U 23129X   23258.58334491 -.01631777  00000+0 -20638-1 0  9996
2 57719  43.0005   8.6062 0000618 272.7463 201.5829 15.61937965  4172
YAOGAN-39 01A           
1 57727U 23130A   23258.63655457  .00017636  00000+0  72449-3 0  9999
2 57727  34.9975 332.3800 0006976  32.0370 328.0768 15.23321503  2314
CZ-2D R/B               
1 57728U 23130B   23258.56934539  .00013044  00000+0  53744-3 0  9999
2 57728  34.9982 332.7785 0008870  39.0442 321.0912 15.23254778  2325
YAOGAN-39 01B           
1 57729U 23130C   23258.63247182  .00025801  00000+0  10399-2 0  9991
2 57729  34.9978 332.3458 0008526  34.3776 325.7490 15.23889859  2315
CZ-2D DEB               
1 57730U 23130D   23258.56620130  .00029225  00000+0  11724-2 0  9990
2 57730  34.9987 332.7528 0009526  34.8768 325.2570 15.24017153  2300
YAOGAN-39 01C           
1 57731U 23130E   23258.63262903  .00017381  00000+0  71158-3 0  9997
2 57731  34.9982 332.3475 0009482  51.1448 309.0112 15.23419249  2315
STARLINK-30375          
1 57732U 23131A   23258.36307248  .00075658  00000+0  49710-3 0  9991
2 57732  42.9979  64.7059 0003529 216.7869 143.2758 15.74760072  3502
STARLINK-30310          
1 57733U 23131B   23258.36257187  .00009965  00000+0  68700-4 0  9997
2 57733  42.9962  64.7018 0004025 209.9288 150.1351 15.74763058  3504
STARLINK-30365          
1 57734U 23131C   23258.34369912  .00111362  00000+0  61095-3 0  9990
2 57734  42.9959  64.5473 0007411 238.7796 121.2349 15.78661811  3492
STARLINK-30371          
1 57735U 23131D   23258.00001157  .00276493  00000+0  16316-2 0  9990
2 57735  42.9977  66.9025 0003829 219.8260 241.8090 15.76562662  3323
STARLINK-30352          
1 57736U 23131E   23258.36295261  .00034649  00000+0  23041-3 0  9990
2 57736  42.9966  64.7056 0003830 206.5964 153.4709 15.74764263  3490
STARLINK-30344          
1 57737U 23131F   23258.00001157 -.00880221  00000+0 -63490-2 0  9999
2 57737  42.9982  66.9054 0001980 212.6664 247.7221 15.75049818  3163
STARLINK-30351          
1 57738U 23131G   23258.36285856  .00087853  00000+0  57245-3 0  9999
2 57738  42.9972  64.7041 0007415 191.0168 169.0540 15.74869989  3497
STARLINK-30242          
1 57739U 23131H   23258.36279152 -.00032417  00000+0 -21210-3 0  9993
2 57739  42.9983  64.7034 0002991 234.1747 125.8844 15.74667423  3494
STARLINK-30331          
1 57740U 23131J   23258.36273871  .00090955  00000+0  59418-3 0  9997
2 57740  42.9974  64.7055 0006457 192.0677 168.0039 15.74807680  3490
STARLINK-30364          
1 57741U 23131K   23258.36263173  .00068049  00000+0  44711-3 0  9991
2 57741  42.9978  64.7030 0006147 192.3185 167.7535 15.74780324  3493
STARLINK-30308          
1 57742U 23131L   23258.36268112  .00084336  00000+0  55180-3 0  9999
2 57742  42.9973  64.7038 0005745 210.7677 149.2856 15.74805012  3494
STARLINK-30361          
1 57743U 23131M   23258.36251057  .00097545  00000+0  63386-3 0  9993
2 57743  42.9976  64.7023 0007978 198.0359 162.0228 15.74888613  3491
STARLINK-30363          
1 57744U 23131N   23258.36224116 -.00097952  00000+0 -65251-3 0  9997
2 57744  43.0004  64.6990 0004240 271.6480  88.3904 15.74651515  3490
STARLINK-30362          
1 57745U 23131P   23258.36239623  .00081619  00000+0  53415-3 0  9997
2 57745  42.9998  64.7023 0004285 238.1669 121.8783 15.74820708  3495
STARLINK-30350          
1 57746U 23131Q   23258.36245400  .00084117  00000+0  54970-3 0  9991
2 57746  42.9985  64.7033 0006324 206.4199 153.6348 15.74829113  3494
STARLINK-30307          
1 57747U 23131R   23258.36232526  .00092795  00000+0  60279-3 0  9997
2 57747  42.9967  64.7001 0006874 191.0512 169.0207 15.74926183  3498
STARLINK-30356          
1 57748U 23131S   23258.36228372  .00084643  00000+0  55274-3 0  9994
2 57748  42.9985  64.7024 0005233 213.1771 146.8771 15.74851813  3491
STARLINK-30366          
1 57749U 23131T   23258.36217980  .00075386  00000+0  49306-3 0  9991
2 57749  42.9984  64.6997 0005637 206.8267 153.2311 15.74853713  3499
STARLINK-30357          
1 57750U 23131U   23258.36203981 -.00268177  00000+0 -18323-2 0  9997
2 57750  42.9974  64.6981 0007016 196.2204 163.8441 15.74568017  3490
STARLINK-30370          
1 57751U 23131V   23258.36212744  .00088844  00000+0  57914-3 0  9994
2 57751  42.9986  64.6974 0006113 198.2353 161.8297 15.74868658  3491
STARLINK-30368          
1 57752U 23131W   23258.34344035  .00103362  00000+0  58833-3 0  9996
2 57752  42.9976  64.5449 0007936 292.9188  67.0844 15.77866085  3499
STARLINK-30343          
1 57753U 23131X   23258.36208852 -.00058594  00000+0 -38628-3 0  9993
2 57753  42.9975  64.6982 0003319 200.5283 159.5453 15.74714836  3490
ADITYA-L1               
1 57754U 23132A   23257.85684028 -.00001334  00000+0  00000+0 0  9999
2 57754  19.2554  17.2188 8437217 354.9359 359.1120  0.99301021   379
PSLV R/B                
1 57755U 23132B   23258.44599177  .00021841  00000+0  17522-2 0  9990
2 57755  19.2787  10.6397 5931786   6.6279 358.5736  4.18693530   556
WILDFIRE 4              
1 57756U 23133A   23258.49358569  .00000070  00000+0  51559-4 0  9996
2 57756  80.9984 252.7538 0009629 183.5877 176.5213 13.86060212  1787
BB4                     
1 57757U 23133B   23258.71129326  .00000085  00000+0  64783-4 0  9998
2 57757  80.9957 252.5405 0009108 181.2701 178.8434 13.85938279  1812
WILDFIRE 3              
1 57758U 23133C   23258.49596368  .00000085  00000+0  64566-4 0  9997
2 57758  80.9930 252.7435 0008410 182.1822 177.9300 13.85803407  1780
BB3                     
1 57760U 23133D   23258.49666370  .00000103  00000+0  80556-4 0  9999
2 57760  80.9958 252.7511 0008053 185.3962 174.7109 13.85728261  1787
WILDFIRE 7              
1 57761U 23133E   23258.50555998  .00000069  00000+0  51783-4 0  9996
2 57761  80.9954 252.7621 0004633 211.8246 148.2631 13.84768064  1786
CHECKMATE 10            
1 57762U 23133F   23258.50135706  .00000089  00000+0  69084-4 0  9993
2 57762  80.9967 252.7583 0005576 189.6670 170.4380 13.85221532  1781
WILDFIRE 6              
1 57763U 23133G   23258.50329055  .00000070  00000+0  51856-4 0  9994
2 57763  80.9914 252.7543 0004997 198.7492 161.3481 13.85012728  1785
WILDFIRE 1              
1 57764U 23133H   23258.49967559  .00000071  00000+0  52618-4 0  9998
2 57764  80.9961 252.7554 0006063 182.3549 177.7580 13.85402757  1784
WILDFIRE 9              
1 57765U 23133J   23258.50276590  .00000110  00000+0  87321-4 0  9992
2 57765  81.0001 252.7646 0005149 196.0919 164.0074 13.85069720  1787
WILDFIRE 10             
1 57766U 23133K   23258.50069614  .00000079  00000+0  59744-4 0  9992
2 57766  80.9990 252.7601 0005753 186.4429 173.6655 13.85292754  1780
WILDFIRE 2              
1 57767U 23133L   23258.50439354  .00000079  00000+0  60436-4 0  9995
2 57767  80.9924 252.7571 0004793 204.7818 155.3108 13.84893815  1787
WILDFIRE 8              
1 57768U 23133M   23258.50239912  .00000118  00000+0  94190-4 0  9992
2 57768  80.9914 252.7528 0005268 194.7173 165.3830 13.85109394  1796
WILDFIRE 5              
1 57769U 23133N   23258.50187285  .00000079  00000+0  60172-4 0  9997
2 57769  81.0000 252.7631 0005425 191.9855 168.1173 13.85165800  1785
STARLINK-30397          
1 57771U 23134A   23258.83334491 -.00821264  00000+0 -54344-2 0  9991
2 57771  43.0011  89.7577 0007589 205.5929   1.0856 15.76751282  2929
STARLINK-30354          
1 57772U 23134B   23258.58334491 -.00879506  00000+0 -57295-2 0  9994
2 57772  43.0012  91.2762 0006433 190.0119  35.8665 15.77272557  3053
STARLINK-30383          
1 57773U 23134C   23258.83334491 -.00851601  00000+0 -56608-2 0  9996
2 57773  43.0013  89.7562 0004066 200.7716   6.4639 15.76785302  3081
STARLINK-30384          
1 57774U 23134D   23258.58334491 -.00882072  00000+0 -57448-2 0  9998
2 57774  43.0013  91.2740 0005979 198.1243  28.5520 15.77292377  2817
